{
  "type": "FeatureCollection",
  "features": [
    {
      "type": "Feature",
      "properties": {
        "norad_id": 34350,
        "name": "IRIDIUM 33 DEB",
        "group": "iridium-33-debris",
        "lat": 86.28037834770183,
        "lon": 104.86603157490848,
        "alt_km": 727.1780233225036,
        "timestamp": "2025-12-05T14:45:15.682699+00:00",
        "meta_object_name": "IRIDIUM 33 DEB",
        "meta_object_id": "1997-051ES",
        "meta_epoch": "2025-12-04T01:54:53.906976",
        "meta_mean_motion": 14.45357099,
        "meta_eccentricity": 0.00219337,
        "meta_inclination": 86.3281,
        "meta_ra_of_asc_node": 6.5649,
        "meta_arg_of_pericenter": 162.4763,
        "meta_mean_anomaly": 226.5026,
        "meta_ephemeris_type": 0,
        "meta_classification_type": "U",
        "meta_norad_cat_id": 34350,
        "meta_element_set_no": 999,
        "meta_rev_at_epoch": 88168,
        "meta_bstar": 0.00057236591,
        "meta_mean_motion_dot": 2.036e-05,
        "meta_mean_motion_ddot": 0,
        "tle_line1": "1 34350U 97051ES  25338.07979059  .00002036  00000+0  57237-3 0  9991",
        "tle_line2": "2 34350  86.3281   6.5649 0021933 162.4763 226.5026 14.45357099881683"
      },
      "geometry": {
        "type": "Point",
        "coordinates": [
          104.86603157490848,
          86.28037834770183
        ]
      }
    },
    {
      "type": "Feature",
      "properties": {
        "norad_id": 34366,
        "name": "IRIDIUM 33 DEB",
        "group": "iridium-33-debris",
        "lat": -17.864809523175396,
        "lon": -126.41604626939116,
        "alt_km": 705.1718643879885,
        "timestamp": "2025-12-05T14:45:15.682709+00:00",
        "meta_object_name": "IRIDIUM 33 DEB",
        "meta_object_id": "1997-051FJ",
        "meta_epoch": "2025-12-04T16:58:06.750048",
        "meta_mean_motion": 14.53943221,
        "meta_eccentricity": 0.0021835,
        "meta_inclination": 86.3708,
        "meta_ra_of_asc_node": 52.8063,
        "meta_arg_of_pericenter": 165.4652,
        "meta_mean_anomaly": 323.8941,
        "meta_ephemeris_type": 0,
        "meta_classification_type": "U",
        "meta_norad_cat_id": 34366,
        "meta_element_set_no": 999,
        "meta_rev_at_epoch": 88065,
        "meta_bstar": 0.0028769,
        "meta_mean_motion_dot": 0.00012178,
        "meta_mean_motion_ddot": 0,
        "tle_line1": "1 34366U 97051FJ  25338.70702257  .00012178  00000+0  28769-2 0  9997",
        "tle_line2": "2 34366  86.3708  52.8063 0021835 165.4652 323.8941 14.53943221880659"
      },
      "geometry": {
        "type": "Point",
        "coordinates": [
          -126.41604626939116,
          -17.864809523175396
        ]
      }
    },
    {
      "type": "Feature",
      "properties": {
        "norad_id": 34375,
        "name": "IRIDIUM 33 DEB",
        "group": "iridium-33-debris",
        "lat": -44.20058383858013,
        "lon": -177.9092248324861,
        "alt_km": 910.9465134015818,
        "timestamp": "2025-12-05T14:45:15.682719+00:00",
        "meta_object_name": "IRIDIUM 33 DEB",
        "meta_object_id": "1997-051FT",
        "meta_epoch": "2025-12-04T13:42:06.507360",
        "meta_mean_motion": 14.17970346,
        "meta_eccentricity": 0.0102617,
        "meta_inclination": 86.4331,
        "meta_ra_of_asc_node": 185.989,
        "meta_arg_of_pericenter": 152.4354,
        "meta_mean_anomaly": 237.8204,
        "meta_ephemeris_type": 0,
        "meta_classification_type": "U",
        "meta_norad_cat_id": 34375,
        "meta_element_set_no": 999,
        "meta_rev_at_epoch": 86596,
        "meta_bstar": 0.0006989,
        "meta_mean_motion_dot": 1.525e-05,
        "meta_mean_motion_ddot": 0,
        "tle_line1": "1 34375U 97051FT  25338.57090865  .00001525  00000+0  69890-3 0  9992",
        "tle_line2": "2 34375  86.4331 185.9890 0102617 152.4354 237.8204 14.17970346865962"
      },
      "geometry": {
        "type": "Point",
        "coordinates": [
          -177.9092248324861,
          -44.20058383858013
        ]
      }
    },
    {
      "type": "Feature",
      "properties": {
        "norad_id": 34376,
        "name": "IRIDIUM 33 DEB",
        "group": "iridium-33-debris",
        "lat": -85.89830200015257,
        "lon": -105.75511313663726,
        "alt_km": 688.6758726298767,
        "timestamp": "2025-12-05T14:45:15.682730+00:00",
        "meta_object_name": "IRIDIUM 33 DEB",
        "meta_object_id": "1997-051FU",
        "meta_epoch": "2025-12-04T06:19:49.811808",
        "meta_mean_motion": 14.62377992,
        "meta_eccentricity": 0.0026189,
        "meta_inclination": 86.2991,
        "meta_ra_of_asc_node": 10.3504,
        "meta_arg_of_pericenter": 195.5918,
        "meta_mean_anomaly": 164.449,
        "meta_ephemeris_type": 0,
        "meta_classification_type": "U",
        "meta_norad_cat_id": 34376,
        "meta_element_set_no": 999,
        "meta_rev_at_epoch": 87883,
        "meta_bstar": 0.0035031,
        "meta_mean_motion_dot": 0.00017843,
        "meta_mean_motion_ddot": 0,
        "tle_line1": "1 34376U 97051FU  25338.26377097  .00017843  00000+0  35031-2 0  9993",
        "tle_line2": "2 34376  86.2991  10.3504 0026189 195.5918 164.4490 14.62377992878839"
      },
      "geometry": {
        "type": "Point",
        "coordinates": [
          -105.75511313663726,
          -85.89830200015257
        ]
      }
    },
    {
      "type": "Feature",
      "properties": {
        "norad_id": 34486,
        "name": "IRIDIUM 33 DEB",
        "group": "iridium-33-debris",
        "lat": -2.385185652356699,
        "lon": 15.162286710609932,
        "alt_km": 591.5094951388301,
        "timestamp": "2025-12-05T14:45:15.682741+00:00",
        "meta_object_name": "IRIDIUM 33 DEB",
        "meta_object_id": "1997-051GB",
        "meta_epoch": "2025-12-04T13:38:06.925344",
        "meta_mean_motion": 14.9522889,
        "meta_eccentricity": 0.0013076,
        "meta_inclination": 86.3938,
        "meta_ra_of_asc_node": 15.7953,
        "meta_arg_of_pericenter": 139.4776,
        "meta_mean_anomaly": 348.0834,
        "meta_ephemeris_type": 0,
        "meta_classification_type": "U",
        "meta_norad_cat_id": 34486,
        "meta_element_set_no": 999,
        "meta_rev_at_epoch": 88864,
        "meta_bstar": 0.0049776,
        "meta_mean_motion_dot": 0.00055199,
        "meta_mean_motion_ddot": 0,
        "tle_line1": "1 34486U 97051GB  25338.56813571  .00055199  00000+0  49776-2 0  9997",
        "tle_line2": "2 34486  86.3938  15.7953 0013076 139.4776 348.0834 14.95228890888640"
      },
      "geometry": {
        "type": "Point",
        "coordinates": [
          15.162286710609932,
          -2.385185652356699
        ]
      }
    },
    {
      "type": "Feature",
      "properties": {
        "norad_id": 34487,
        "name": "IRIDIUM 33 DEB",
        "group": "iridium-33-debris",
        "lat": -84.6178160047434,
        "lon": -27.288065766990247,
        "alt_km": 767.8228147955897,
        "timestamp": "2025-12-05T14:45:15.682751+00:00",
        "meta_object_name": "IRIDIUM 33 DEB",
        "meta_object_id": "1997-051GC",
        "meta_epoch": "2025-12-03T10:12:00.081216",
        "meta_mean_motion": 14.43196495,
        "meta_eccentricity": 0.00319082,
        "meta_inclination": 86.3443,
        "meta_ra_of_asc_node": 16.3873,
        "meta_arg_of_pericenter": 157.9365,
        "meta_mean_anomaly": 266.0119,
        "meta_ephemeris_type": 0,
        "meta_classification_type": "U",
        "meta_norad_cat_id": 34487,
        "meta_element_set_no": 999,
        "meta_rev_at_epoch": 88114,
        "meta_bstar": 0.00029137047,
        "meta_mean_motion_dot": 1.005e-05,
        "meta_mean_motion_ddot": 0,
        "tle_line1": "1 34487U 97051GC  25337.42500094  .00001005  00000+0  29137-3 0  9992",
        "tle_line2": "2 34487  86.3443  16.3873 0031908 157.9365 266.0119 14.43196495881144"
      },
      "geometry": {
        "type": "Point",
        "coordinates": [
          -27.288065766990247,
          -84.6178160047434
        ]
      }
    },
    {
      "type": "Feature",
      "properties": {
        "norad_id": 34488,
        "name": "IRIDIUM 33 DEB",
        "group": "iridium-33-debris",
        "lat": -46.761748517498035,
        "lon": 133.2550024597124,
        "alt_km": 502.08137455753604,
        "timestamp": "2025-12-05T14:45:15.682761+00:00",
        "meta_object_name": "IRIDIUM 33 DEB",
        "meta_object_id": "1997-051GD",
        "meta_epoch": "2025-12-04T04:43:46.394400",
        "meta_mean_motion": 15.26377687,
        "meta_eccentricity": 0.00155256,
        "meta_inclination": 86.3256,
        "meta_ra_of_asc_node": 310.0352,
        "meta_arg_of_pericenter": 64.3641,
        "meta_mean_anomaly": 295.9208,
        "meta_ephemeris_type": 0,
        "meta_classification_type": "U",
        "meta_norad_cat_id": 34488,
        "meta_element_set_no": 999,
        "meta_rev_at_epoch": 89109,
        "meta_bstar": 0.0085126879,
        "meta_mean_motion_dot": 0.00228455,
        "meta_mean_motion_ddot": 0,
        "tle_line1": "1 34488U 97051GD  25338.19706475  .00228455  00000+0  85127-2 0  9999",
        "tle_line2": "2 34488  86.3256 310.0352 0015525  64.3641 295.9208 15.26377687891099"
      },
      "geometry": {
        "type": "Point",
        "coordinates": [
          133.2550024597124,
          -46.761748517498035
        ]
      }
    }
  ]
}